NORAD_CAT_ID,OBJECT_NAME,OBJECT_TYPE,EPOCH,MEAN_MOTION,ECCENTRICITY,INCLINATION,RA_OF_ASC_NODE,ARG_OF_PERICENTER,MEAN_ANOMALY,BSTAR,MEAN_MOTION_DOT,MEAN_MOTION_DDOT,TLE_LINE0,TLE_LINE1,TLE_LINE2,SEMIMAJOR_AXIS,PERIOD,APOGEE,PERIGEE,DECAYED
52119.0,STARLINK-3558,PAYLOAD,2023-06-11 23:16:26,15.08844385,0.0001096,53.216,256.0176,84.113,275.9987,8.5992e-05,1.081e-05,0.0,0 STARLINK-3558,1 52119U 22029AH  23162.96975244  .00001081  00000-0  85992-4 0  9990,2 52119  53.2160 256.0176 0001096  84.1130 275.9987 15.08844385 69577,6917.867,95.437,540.49,538.974,0.0
52119.0,STARLINK-3558,PAYLOAD,2023-06-12 05:37:59,15.08841612,0.0001725,53.2158,254.8283,84.5021,275.6168,4.6742e-05,4.56e-06,0.0,0 STARLINK-3558,1 52119U 22029AH  23163.23471383  .00000456  00000-0  46742-4 0  9991,2 52119  53.2158 254.8283 0001725  84.5021 275.6168 15.08841612 69603,6917.875,95.437,540.934,538.547,0.0
52119.0,STARLINK-3558,PAYLOAD,2023-06-12 10:24:08,15.088342,0.0001294,53.2161,253.9352,85.5951,274.5189,-0.00015752,-2.794e-05,0.0,0 STARLINK-3558,1 52119U 22029AH  23163.43343608 -.00002794  00000-0 -15752-3 0  9996,2 52119  53.2161 253.9352 0001294  85.5951 274.5189 15.08834200 69637,6917.898,95.438,540.658,538.868,0.0
52119.0,STARLINK-3558,PAYLOAD,2023-06-12 23:07:14,15.08831611,0.000149,53.2172,251.5571,83.3868,276.7293,-0.0001324,-2.394e-05,0.0,0 STARLINK-3558,1 52119U 22029AH  23163.96336040 -.00002394  00000-0 -13240-3 0  9992,2 52119  53.2172 251.5571 0001490  83.3868 276.7293 15.08831611 69720,6917.906,95.438,540.802,538.74,0.0
52119.0,STARLINK-3558,PAYLOAD,2023-06-13 05:28:46,15.08833973,0.0001195,53.2169,250.3685,82.9264,277.1864,-9.4226e-05,-1.787e-05,0.0,0 STARLINK-3558,1 52119U 22029AH  23164.22832144 -.00001787  00000-0 -94226-4 0  9997,2 52119  53.2169 250.3685 0001195  82.9264 277.1864 15.08833973 69751,6917.899,95.438,540.591,538.937,0.0
52119.0,STARLINK-3558,PAYLOAD,2023-06-13 15:01:05,15.08836923,0.0001197,53.2162,248.5837,83.0429,277.07,-6.4486e-05,-1.314e-05,0.0,0 STARLINK-3558,1 52119U 22029AH  23164.62576196 -.00001314  00000-0 -64486-4 0  9994,2 52119  53.2162 248.5837 0001197  83.0429 277.0700 15.08836923 69812,6917.89,95.438,540.583,538.927,0.0
52119.0,STARLINK-3558,PAYLOAD,2023-06-13 22:58:01,15.08838787,0.0001169,53.2163,247.0969,84.7758,275.3368,1.7242e-05,-1.3e-07,0.0,0 STARLINK-3558,1 52119U 22029AH  23164.95696275 -.00000013  00000-0  17242-4 0  9993,2 52119  53.2163 247.0969 0001169  84.7758 275.3368 15.08838787 69872,6917.884,95.438,540.558,538.94,0.0
52119.0,STARLINK-3558,PAYLOAD,2023-06-14 08:30:20,15.08837361,0.0001253,53.2159,245.312,84.2225,275.891,0.00029806,4.459e-05,0.0,0 STARLINK-3558,1 52119U 22029AH  23165.35440696  .00004459  00000-0  29806-3 0  9997,2 52119  53.2159 245.3120 0001253  84.2225 275.8910 15.08837361 69926,6917.888,95.438,540.62,538.887,0.0
52119.0,STARLINK-3558,PAYLOAD,2023-06-15 09:56:31,15.08835061,0.0001236,53.2161,240.5537,85.0291,275.0842,0.00015227,2.136e-05,0.0,0 STARLINK-3558,1 52119U 22029AH  23166.41425276  .00002136  00000-0  15227-3 0  9994,2 52119  53.2161 240.5537 0001236  85.0291 275.0842 15.08835061 70092,6917.895,95.438,540.616,538.905,0.0
52119.0,STARLINK-3558,PAYLOAD,2023-06-15 11:31:54,15.08837792,0.0001213,53.2164,240.256,82.8999,277.2131,0.00011794,1.59e-05,0.0,0 STARLINK-3558,1 52119U 22029AH  23166.48049144  .00001590  00000-0  11794-3 0  9995,2 52119  53.2164 240.2560 0001213  82.8999 277.2131 15.08837792 70091,6917.887,95.438,540.591,538.913,0.0
52119.0,STARLINK-3558,PAYLOAD,2023-06-15 14:42:40,15.08838346,0.0001216,53.2164,239.6613,82.9381,277.1749,0.00011595,1.558e-05,0.0,0 STARLINK-3558,1 52119U 22029AH  23166.61297136  .00001558  00000-0  11595-3 0  9999,2 52119  53.2164 239.6613 0001216  82.9381 277.1749 15.08838346 70114,6917.885,95.438,540.592,538.909,0.0
52119.0,STARLINK-3558,PAYLOAD,2023-06-16 11:22:40,15.08855529,0.0001248,53.2159,235.7959,85.0498,275.0636,0.00028931,4.321e-05,0.0,0 STARLINK-3558,1 52119U 22029AH  23167.47408183  .00004321  00000-0  28931-3 0  9993,2 52119  53.2159 235.7959 0001248  85.0498 275.0636 15.08855529 70255,6917.833,95.437,540.561,538.835,0.0
52119.0,STARLINK-3558,PAYLOAD,2023-06-16 12:58:03,15.0885815,0.0001264,53.2159,235.4984,85.4312,274.6825,0.00037676,5.716e-05,0.0,0 STARLINK-3558,1 52119U 22029AH  23167.54032067  .00005716  00000-0  37676-3 0  9990,2 52119  53.2159 235.4984 0001264  85.4312 274.6825 15.08858150 70255,6917.825,95.436,540.564,538.815,0.0
52119.0,STARLINK-3558,PAYLOAD,2023-06-16 14:33:26,15.08860753,0.0001274,53.2159,235.2009,84.209,275.9048,0.00048602,7.46e-05,0.0,0 STARLINK-3558,1 52119U 22029AH  23167.60656122  .00007460  00000-0  48602-3 0  9990,2 52119  53.2159 235.2009 0001274  84.2090 275.9048 15.08860753 70266,6917.817,95.436,540.563,538.801,0.0
52119.0,STARLINK-3558,PAYLOAD,2023-06-17 00:05:46,15.08839761,0.000103,53.2159,233.417,71.1022,289.0082,0.00010789,1.43e-05,0.0,0 STARLINK-3558,1 52119U 22029AH  23168.00400833  .00001430  00000-0  10789-3 0  9997,2 52119  53.2159 233.4170 0001030  71.1022 289.0082 15.08839761 70332,6917.881,95.438,540.459,539.034,0.0
52119.0,STARLINK-3558,PAYLOAD,2023-06-17 11:13:28,15.08843244,0.0001201,53.2157,231.336,89.9849,270.1281,7.7862e-05,9.52e-06,0.0,0 STARLINK-3558,1 52119U 22029AH  23168.46768633  .00000952  00000-0  77862-4 0  9996,2 52119  53.2157 231.3360 0001201  89.9849 270.1281 15.08843244 70391,6917.87,95.437,540.566,538.905,0.0
52119.0,STARLINK-3558,PAYLOAD,2023-06-17 20:45:47,15.0883787,0.0001263,53.2155,229.5523,92.0083,268.1054,-2.8872e-07,-2.92e-06,0.0,0 STARLINK-3558,1 52119U 22029AH  23168.86512786 -.00000292  00000-0 -28872-6 0  9994,2 52119  53.2155 229.5523 0001263  92.0083 268.1054 15.08837870 70452,6917.887,95.438,540.626,538.878,0.0
52119.0,STARLINK-3558,PAYLOAD,2023-06-18 12:39:38,15.0883491,0.0001193,53.2149,226.578,89.8375,270.2754,1.2375e-05,-9.1e-07,0.0,0 STARLINK-3558,1 52119U 22029AH  23169.52753112 -.00000091  00000-0  12375-4 0  9993,2 52119  53.2149 226.5780 0001193  89.8375 270.2754 15.08834910 70551,6917.896,95.438,540.586,538.936,0.0
52119.0,STARLINK-3558,PAYLOAD,2023-06-18 20:36:34,15.08836112,0.0001147,53.2149,225.0915,91.3724,268.74,0.0001134,1.517e-05,0.0,0 STARLINK-3558,1 52119U 22029AH  23169.85873213  .00001517  00000-0  11340-3 0  9997,2 52119  53.2149 225.0915 0001147  91.3724 268.7400 15.08836112 70602,6917.892,95.438,540.551,538.964,0.0
52119.0,STARLINK-3558,PAYLOAD,2023-06-19 04:33:30,15.0883813,0.0001148,53.2151,223.6049,94.7085,265.4038,0.00016358,2.316e-05,0.0,0 STARLINK-3558,1 52119U 22029AH  23170.18993263  .00002316  00000-0  16358-3 0  9995,2 52119  53.2151 223.6049 0001148  94.7085 265.4038 15.08838130 70653,6917.886,95.438,540.545,538.957,0.0
52119.0,STARLINK-3558,PAYLOAD,2023-06-19 20:27:21,15.08840264,0.0001122,53.215,220.6313,93.3698,266.7423,0.00016017,2.262e-05,0.0,0 STARLINK-3558,1 52119U 22029AH  23170.85233293  .00002262  00000-0  16017-3 0  9991,2 52119  53.2150 220.6313 0001122  93.3698 266.7423 15.08840264 70754,6917.88,95.438,540.521,538.968,0.0
52119.0,STARLINK-3558,PAYLOAD,2023-06-20 04:24:17,15.08838659,0.0001088,53.2151,219.1443,91.5063,268.6054,0.00012603,1.718e-05,0.0,0 STARLINK-3558,1 52119U 22029AH  23171.18353414  .00001718  00000-0  12603-3 0  9998,2 52119  53.2151 219.1443 0001088  91.5063 268.6054 15.08838659 70801,6917.884,95.438,540.502,538.997,0.0
52119.0,STARLINK-3558,PAYLOAD,2023-06-21 12:11:59,15.0884793,0.0001062,53.2149,213.1964,87.9316,272.1798,0.00017203,2.452e-05,0.0,0 STARLINK-3558,1 52119U 22029AH  23172.50833057  .00002452  00000-0  17203-3 0  9998,2 52119  53.2149 213.1964 0001062  87.9316 272.1798 15.08847930 71013,6917.856,95.437,540.456,538.986,0.0
52119.0,STARLINK-3558,PAYLOAD,2023-06-21 20:08:55,15.08842819,0.0001095,53.2148,211.7093,85.5026,274.6091,0.00010718,1.418e-05,0.0,0 STARLINK-3558,1 52119U 22029AH  23172.83953284  .00001418  00000-0  10718-3 0  9994,2 52119  53.2148 211.7093 0001095  85.5026 274.6091 15.08842819 71055,6917.872,95.437,540.494,538.979,0.0
52119.0,STARLINK-3558,PAYLOAD,2023-06-22 02:30:28,15.08840428,0.0001091,53.2144,210.5198,90.3278,269.784,9.2435e-05,1.184e-05,0.0,0 STARLINK-3558,1 52119U 22029AH  23173.10449400  .00001184  00000-0  92435-4 0  9992,2 52119  53.2144 210.5198 0001091  90.3278 269.7840 15.08840428 71100,6917.879,95.438,540.499,538.989,0.0
52119.0,STARLINK-3558,PAYLOAD,2023-06-23 08:42:47,15.08842963,0.0001069,53.2158,204.8693,97.6243,262.487,3.8369e-05,3.23e-06,0.0,0 STARLINK-3558,1 52119U 22029AH  23174.36305185  .00000323  00000-0  38369-4 0  9992,2 52119  53.2158 204.8693 0001069  97.6243 262.4870 15.08842963 71297,6917.871,95.437,540.476,538.997,0.0
52119.0,STARLINK-3558,PAYLOAD,2023-06-24 02:12:02,15.08837865,0.0001085,53.2159,201.5987,97.1868,262.9247,4.4568e-05,4.22e-06,0.0,0 STARLINK-3558,1 52119U 22029AH  23175.09169533  .00000422  00000-0  44568-4 0  9996,2 52119  53.2159 201.5987 0001085  97.1868 262.9247 15.08837865 71405,6917.887,95.438,540.503,539.001,0.0
52119.0,STARLINK-3558,PAYLOAD,2023-06-25 08:24:22,15.08840422,0.0001091,53.2159,195.9494,93.164,266.9477,6.7466e-05,7.86e-06,0.0,0 STARLINK-3558,1 52119U 22029AH  23176.35025481  .00000786  00000-0  67466-4 0  9994,2 52119  53.2159 195.9494 0001091  93.1640 266.9477 15.08840422 71597,6917.879,95.438,540.499,538.989,0.0
52119.0,STARLINK-3558,PAYLOAD,2023-06-26 01:53:37,15.08834033,0.0001101,53.2158,192.6782,90.7675,269.3443,3.4337e-05,2.59e-06,0.0,0 STARLINK-3558,1 52119U 22029AH  23177.07890110  .00000259  00000-0  34337-4 0  9999,2 52119  53.2158 192.6782 0001101  90.7675 269.3443 15.08834033 71707,6917.899,95.438,540.525,539.002,0.0
52119.0,STARLINK-3558,PAYLOAD,2023-06-27 08:05:56,15.08836405,0.0001085,53.2156,187.028,89.5816,270.53,1.6927e-05,-1.8e-07,0.0,0 STARLINK-3558,1 52119U 22029AH  23178.33746387 -.00000018  00000-0  16927-4 0  9994,2 52119  53.2156 187.0280 0001085  89.5816 270.5300 15.08836405 71891,6917.891,95.438,540.507,539.006,0.0
